OBJECT_NAME,OBJECT_ID,EPOCH,MEAN_MOTION,ECCENTRICITY,INCLINATION,RA_OF_ASC_NODE,ARG_OF_PERICENTER,MEAN_ANOMALY,EPHEMERIS_TYPE,CLASSIFICATION_TYPE,NORAD_CAT_ID,ELEMENT_SET_NO,REV_AT_EPOCH,BSTAR,MEAN_MOTION_DOT,MEAN_MOTION_DDOT
STARLINK-11245 [DTC],2024-155B,2026-06-11T10:26:58.897824,15.69717588,.0000845,53.1584,239.3098,70.9643,289.1466,0,U,60925,999,10312,-.21527E-4,-.3196E-4,0
STARLINK-11244 [DTC],2024-155C,2026-06-11T11:44:32.694720,15.69694159,.0000828,53.1571,238.9296,87.8107,272.3005,0,U,60926,999,10318,.12089E-4,.876E-5,0
STARLINK-11243 [DTC],2024-155D,2026-06-11T11:51:36.581760,15.69704610,.0001017,53.1589,238.9633,69.4750,290.6377,0,U,60927,999,10313,.90334E-5,.506E-5,0
STARLINK-11238 [DTC],2024-155E,2026-06-11T11:37:28.971840,15.69701317,.0001147,53.1574,238.9011,73.0913,287.0230,0,U,60928,999,10318,.96158E-5,.576E-5,0
STARLINK-11240 [DTC],2024-155F,2026-06-11T11:30:25.236864,15.69692096,.0000877,53.1576,238.8650,58.2146,301.8958,0,U,60929,999,10313,.11441E-4,.797E-5,0
STARLINK-11251 [DTC],2024-155G,2026-06-11T11:23:21.274656,15.69703806,.000104,53.1587,238.8336,70.2152,289.8978,0,U,60930,999,10313,-.43094E-5,-.111E-4,0
STARLINK-11204 [DTC],2024-155H,2026-06-11T11:16:16.921056,15.69698498,.0001211,53.1603,238.8049,99.4047,260.7108,0,U,60931,999,10313,.29631E-4,.3001E-4,0
STARLINK-11246 [DTC],2024-155J,2026-06-11T11:09:13.650048,15.69702625,.0000701,53.1573,238.7668,88.9171,271.1927,0,U,60932,999,10313,.22748E-5,-.312E-5,0
STARLINK-11207 [DTC],2024-155K,2026-06-11T11:02:09.917664,15.69701374,.00007766,53.1580,238.7338,81.8644,278.2462,0,U,60933,999,10313,-.1540653E-5,-.775E-5,0
STARLINK-11237 [DTC],2024-155L,2026-06-11T10:55:05.690208,15.69710755,.0001015,53.1580,238.7034,58.5806,301.5311,0,U,60934,999,10314,-.6980733E-5,-.1434E-4,0
STARLINK-11253 [DTC],2024-155M,2026-06-11T12:12:45.704448,15.69729911,.00010309,53.1590,239.0569,88.0086,272.1050,0,U,60935,999,10313,.39691193E-4,.4226E-4,0
STARLINK-11241 [DTC],2024-155N,2026-06-11T12:05:41.527104,15.69733864,.00010509,53.1592,239.0228,63.8220,296.2906,0,U,60936,999,10313,.39600091E-4,.4216E-4,0
STARLINK-32259,2024-155P,2026-06-10T23:49:21.730368,15.30179031,.00014754,53.1607,56.4539,75.0293,285.0871,0,U,60937,999,10062,-.91126786E-4,-.3055E-4,0
STARLINK-32262,2024-155Q,2026-06-11T14:00:01.999872,15.85080517,.00016355,53.1380,8.4468,96.7643,112.1379,0,U,60938,999,595,.77915298E-3,.190892E-2,0
STARLINK-32258,2024-155R,2026-06-11T09:31:16.563072,15.34398748,.0001105,53.1607,54.0021,112.4643,247.6477,0,U,60939,999,10064,.8622034E-5,-.85E-6,0
STARLINK-32251,2024-155S,2026-06-11T10:04:36.902784,15.34386053,.00013501,53.1606,54.1389,96.3819,263.7337,0,U,60940,999,10069,.13073607E-4,.65E-6,0
STARLINK-32224,2024-155T,2026-06-11T14:00:01.999872,15.34369426,.00008073,53.1613,53.5123,67.0918,46.8035,0,U,60941,999,587,.16452629E-2,.5557E-3,0
STARLINK-32184,2024-155U,2026-06-11T09:37:20.574912,15.34400814,.00017423,53.1604,54.0282,88.3562,271.7640,0,U,60942,999,10064,.11980573E-3,.3673E-4,0
STARLINK-32288,2024-155V,2026-06-11T00:17:36.053376,15.34403670,.00017163,53.1625,55.8622,68.4432,291.6754,0,U,60943,999,10058,-.2039834E-4,-.1066E-4,0
STARLINK-32276,2024-155W,2026-06-11T14:00:01.999872,15.33502214,.00008711,53.1606,53.6614,82.7397,314.3105,0,U,60944,999,582,.24201532E-2,.79954E-3,0
YAOGAN-43 02A,2024-156A,2026-06-11T12:32:56.564160,15.49199163,.00041811,34.9938,189.8256,214.4120,145.6332,0,U,60945,999,9908,.62519322E-3,.35249E-3,0
YAOGAN-43 02B,2024-156B,2026-06-11T13:04:31.745568,15.23006106,.00021829,34.9943,233.5037,55.8901,304.2020,0,U,60946,999,9858,.31302248E-3,.7513E-4,0
YAOGAN-43 02C,2024-156C,2026-06-11T12:58:39.561024,15.22951405,.00032937,34.9977,233.6398,317.9389,42.1072,0,U,60947,999,9858,.21525525E-3,.5145E-4,0
YAOGAN-43 02D,2024-156D,2026-06-11T13:08:39.259968,15.23054377,.00026551,34.9918,233.4239,219.3477,140.7045,0,U,60948,999,9858,.25138791E-3,.6034E-4,0
YAOGAN-43 02E,2024-156E,2026-06-11T13:14:12.375168,15.22956849,.00036254,34.9956,233.6223,298.2149,61.8199,0,U,60949,999,9858,.44052986E-3,.10578E-3,0
YAOGAN-43 02F,2024-156F,2026-06-11T13:00:11.582208,15.23055427,.00015329,34.9923,233.3849,277.0108,83.0432,0,U,60950,999,9858,.27142156E-3,.6518E-4,0
SENTINEL-2C,2024-157A,2026-06-11T15:33:13.040640,14.30816335,.0001112,98.5691,237.5082,80.1017,280.0292,0,U,60989,999,9219,.45398E-4,.75E-6,0
STARLINK-11289 [DTC],2024-158B,2026-06-11T07:44:42.094752,15.69705205,.0001272,53.1588,179.4816,70.0884,290.0271,0,U,60991,999,10230,.1085E-5,-.457E-5,0
STARLINK-11282 [DTC],2024-158C,2026-06-11T08:05:53.350656,15.69705960,.0001073,53.1591,179.5777,93.7302,266.3838,0,U,60992,999,10230,.7491E-5,.319E-5,0
STARLINK-11283 [DTC],2024-158D,2026-06-11T07:23:39.358752,15.69705495,.0001259,53.1578,180.1070,52.5527,307.5606,0,U,60993,999,10229,.35036E-6,-.546E-5,0
STARLINK-11267 [DTC],2024-158E,2026-06-11T05:44:54.650688,15.69702135,.0000799,53.1575,180.3980,86.8575,273.2534,0,U,60994,999,10228,.14534E-5,-.412E-5,0
STARLINK-11269 [DTC],2024-158F,2026-06-11T05:37:51.144672,15.69685895,.0000907,53.1580,180.3614,103.1243,256.9876,0,U,60995,999,10227,.29727E-4,.3011E-4,0
STARLINK-11281 [DTC],2024-158G,2026-06-11T05:30:46.486944,15.69708664,.0001055,53.1586,180.3337,61.3856,298.7268,0,U,60996,999,10227,.69237E-5,.25E-5,0
STARLINK-11260 [DTC],2024-158H,2026-06-11T05:26:24.472032,15.69696835,.0001149,53.1592,157.9999,91.5887,268.5262,0,U,60997,999,10264,.15329E-5,-.403E-5,0
STARLINK-11287 [DTC],2024-158J,2026-06-11T08:27:05.005728,15.69705466,.0001635,53.1592,179.6686,50.9875,309.1289,0,U,60998,999,10229,.99181E-6,-.469E-5,0
STARLINK-11270 [DTC],2024-158K,2026-06-11T14:26:44.839968,15.69765692,.0001065,53.1562,178.3828,68.4230,291.6901,0,U,60999,999,10233,.10819E-2,.132906E-2,0
STARLINK-11290 [DTC],2024-158L,2026-06-11T08:12:57.274848,15.69702375,.0001063,53.1586,179.6073,108.0142,252.0992,0,U,61000,999,10236,.66714E-5,.22E-5,0
STARLINK-11274 [DTC],2024-158M,2026-06-11T07:58:49.433376,15.69707548,.0000958,53.1577,179.5382,88.4297,271.6830,0,U,61001,999,10229,-.71112E-6,-.674E-5,0
STARLINK-11288 [DTC],2024-158N,2026-06-11T07:51:45.803808,15.69707345,.0001286,53.1583,179.5071,76.5016,283.6145,0,U,61002,999,10229,.52021E-5,.41E-6,0
STARLINK-32279,2024-158P,2026-06-11T16:03:57.621024,15.34406216,.0001234,53.1618,348.7455,83.1452,276.9691,0,U,61003,999,10004,-.36256E-4,-.1601E-4,0
STARLINK-32336,2024-158Q,2026-06-11T16:13:03.505728,15.34373094,.0000606,53.1619,348.7880,97.0951,263.0121,0,U,61004,999,10004,.85827E-4,.2523E-4,0
STARLINK-32284,2024-158R,2026-06-11T16:00:55.482048,15.34387605,.0001145,53.1621,348.7335,75.2536,284.8594,0,U,61005,999,9997,.35149E-5,-.257E-5,0
STARLINK-32282,2024-158S,2026-06-11T16:24:57.411648,15.30188316,.0001062,53.1608,348.8351,82.0072,278.1049,0,U,61006,999,10004,.86257E-4,.2196E-4,0
STARLINK-32360,2024-158T,2026-06-11T16:23:28.216608,15.34390628,.0001207,53.1617,332.8258,69.4777,290.6355,0,U,61007,999,10019,-.6867E-4,-.2695E-4,0
STARLINK-32340,2024-158U,2026-06-11T16:09:57.328416,15.34419067,.0001277,53.1639,348.7027,109.0164,251.0977,0,U,61008,999,9997,.10406E-3,.3143E-4,0
STARLINK-32347,2024-158W,2026-06-11T18:00:02.000160,15.34393785,.0001266,53.1590,348.5044,89.6697,286.2001,0,U,61010,999,553,-.33543E-3,-.1169E-3,0
GEESAT-3 01,2024-159A,2026-06-11T16:29:13.732800,14.84201623,.0002525,49.9988,108.5973,230.3609,129.7107,0,U,61011,999,9586,.30144E-3,.2322E-4,0
GEESAT-3 02,2024-159B,2026-06-11T16:18:19.257120,14.84180950,.0018982,49.9927,108.8693,33.9087,326.3061,0,U,61012,999,9597,.27046E-3,.2061E-4,0
GEESAT-3 03,2024-159C,2026-06-11T16:50:28.303872,14.84190040,.0005177,49.9919,107.5043,102.2578,257.8940,0,U,61013,999,9602,.28111E-3,.2149E-4,0
GEESAT-3 04,2024-159D,2026-06-11T15:43:29.783712,14.83253014,.0002804,49.9989,19.7206,56.6634,303.4572,0,U,61014,999,9718,.26966E-3,.2003E-4,0
GEESAT-3 05,2024-159E,2026-06-11T16:39:21.570624,14.84229696,.0013539,50.0014,108.7987,33.2282,326.9504,0,U,61015,999,9596,.35375E-3,.2768E-4,0
GEESAT-3 06,2024-159F,2026-06-11T15:45:35.316864,14.84181117,.0016485,49.9964,109.0030,55.0431,305.2054,0,U,61016,999,9594,.27179E-3,.2071E-4,0
GEESAT-3 07,2024-159G,2026-06-11T15:34:31.572192,14.84178929,.0011443,49.9922,108.6452,9.6725,350.4432,0,U,61017,999,9532,.26487E-3,.2011E-4,0
GEESAT-3 08,2024-159H,2026-06-11T15:56:27.775968,14.84189518,.0027562,50.0036,108.7036,71.3760,289.0168,0,U,61018,999,9595,.28121E-3,.2158E-4,0
GEESAT-3 09,2024-159J,2026-06-11T16:07:09.765120,14.84183637,.0022221,49.9960,108.2829,37.8158,322.4337,0,U,61019,999,9595,.27233E-3,.2079E-4,0
GEESAT-3 10,2024-159K,2026-06-11T17:00:54.576000,14.84178647,.0003625,49.9979,108.6376,82.2555,277.8795,0,U,61020,999,9569,.25878E-3,.196E-4,0
SPACEMOBILE-003,2024-163A,2026-06-11T16:44:00.735072,15.20808378,.0006868,52.9761,334.6860,94.6813,265.4966,0,U,61045,999,9693,-.19313E-2,-.43232E-3,0
SPACEMOBILE-005,2024-163B,2026-06-11T16:20:55.800096,15.20834439,.0010305,52.9751,334.6910,98.2487,261.9676,0,U,61046,999,9692,-.35891E-4,-.1134E-4,0
SPACEMOBILE-001,2024-163C,2026-06-11T05:16:19.998624,15.20862014,.0009355,52.9705,336.5435,98.5414,261.6641,0,U,61047,999,9685,.17616E-3,.3616E-4,0
SPACEMOBILE-002,2024-163D,2026-06-11T15:55:36.723072,15.20822913,.0008879,52.9720,334.5491,100.0782,260.1215,0,U,61048,999,9692,.4604E-3,.9981E-4,0
SPACEMOBILE-004,2024-163E,2026-06-11T04:27:21.246048,15.20884363,.0009837,52.9760,336.5289,123.3504,236.8433,0,U,61049,999,9685,.70319E-3,.15461E-3,0
STARLINK-11286 [DTC],2024-164A,2026-06-11T09:05:51.546048,15.69698147,.0001325,53.1593,209.4346,64.4058,295.7096,0,U,61050,999,10013,.28007E-5,-.25E-5,0
STARLINK-11252 [DTC],2024-164B,2026-06-11T08:58:47.476704,15.69700861,.0000936,53.1579,209.3993,92.0067,268.1058,0,U,61051,999,10013,.79539E-5,.375E-5,0
STARLINK-11230 [DTC],2024-164D,2026-06-11T10:16:20.799264,15.69704474,.0000946,53.1585,209.0232,87.5303,272.5823,0,U,61053,999,10014,-.28694E-5,-.936E-5,0
